NORAD_CAT_ID,OBJECT_NAME,OBJECT_TYPE,EPOCH,MEAN_MOTION,ECCENTRICITY,INCLINATION,RA_OF_ASC_NODE,ARG_OF_PERICENTER,MEAN_ANOMALY,BSTAR,MEAN_MOTION_DOT,MEAN_MOTION_DDOT,TLE_LINE0,TLE_LINE1,TLE_LINE2,SEMIMAJOR_AXIS,PERIOD,APOGEE,PERIGEE,DECAYED
52473.0,STARLINK-3879,PAYLOAD,2023-10-14 15:04:23,15.08857958,0.0001508,53.218,36.407,76.4095,283.7065,0.00030652,4.596e-05,0.0,0 STARLINK-3879,1 52473U 22049Y   23287.62804686  .00004596  00000-0  30652-3 0  9993,2 52473  53.2180  36.4070 0001508  76.4095 283.7065 15.08857958 80002,6917.825,95.436,540.734,538.647,0.0
52473.0,STARLINK-3879,PAYLOAD,2023-10-15 13:19:48,15.08829487,0.0001336,53.2183,32.243,93.153,266.9615,-2.8268e-05,-7.38e-06,0.0,0 STARLINK-3879,1 52473U 22049Y   23288.55542224 -.00000738  00000-0 -28268-4 0  9990,2 52473  53.2183  32.2430 0001336  93.1530 266.9615 15.08829487 80143,6917.913,95.438,540.702,538.853,0.0
52473.0,STARLINK-3879,PAYLOAD,2023-10-16 11:35:12,15.08846782,0.0001419,53.218,28.0801,93.0505,267.0649,0.00027656,4.117e-05,0.0,0 STARLINK-3879,1 52473U 22049Y   23289.48278095  .00004117  00000-0  27656-3 0  9997,2 52473  53.2180  28.0801 0001419  93.0505 267.0649 15.08846782 80289,6917.86,95.437,540.706,538.743,0.0
52473.0,STARLINK-3879,PAYLOAD,2023-10-16 13:10:35,15.08851259,0.000145,53.218,27.7822,99.5542,260.5614,0.00038659,5.872e-05,0.0,0 STARLINK-3879,1 52473U 22049Y   23289.54901948  .00005872  00000-0  38659-3 0  9998,2 52473  53.2180  27.7822 0001450  99.5542 260.5614 15.08851259 80134,6917.846,95.437,540.714,538.708,0.0
52473.0,STARLINK-3879,PAYLOAD,2023-10-17 13:01:22,15.08849686,0.000155,53.2189,23.3234,93.3818,266.7351,0.00034526,5.213e-05,0.0,0 STARLINK-3879,1 52473U 22049Y   23290.54262157  .00005213  00000-0  34526-3 0  9990,2 52473  53.2189  23.3234 0001550  93.3818 266.7351 15.08849686 80442,6917.851,95.437,540.788,538.644,0.0
52473.0,STARLINK-3879,PAYLOAD,2023-10-18 12:52:09,15.08847497,0.0001538,53.2175,18.8619,93.9594,266.1574,0.00011754,1.584e-05,0.0,0 STARLINK-3879,1 52473U 22049Y   23291.53622004  .00001584  00000-0  11754-3 0  9996,2 52473  53.2175  18.8619 0001538  93.9594 266.1574 15.08847497 80591,6917.857,95.437,540.786,538.659,0.0
52473.0,STARLINK-3879,PAYLOAD,2023-10-18 22:24:27,15.08850918,0.0001449,53.2177,17.0775,83.4266,276.6891,0.00011821,1.594e-05,0.0,0 STARLINK-3879,1 52473U 22049Y   23291.93365711  .00001594  00000-0  11821-3 0  9995,2 52473  53.2177  17.0775 0001449  83.4266 276.6891 15.08850918 80497,6917.847,95.437,540.714,538.71,0.0
52473.0,STARLINK-3879,PAYLOAD,2023-10-19 11:07:33,15.08850132,0.0001449,53.2175,14.7017,91.724,268.3918,0.00018086,2.592e-05,0.0,0 STARLINK-3879,1 52473U 22049Y   23292.46357721  .00002592  00000-0  18086-3 0  9995,2 52473  53.2175  14.7017 0001449  91.7240 268.3918 15.08850132 80577,6917.849,95.437,540.717,538.712,0.0
52473.0,STARLINK-3879,PAYLOAD,2023-10-19 22:15:15,15.08845903,0.0001499,53.2168,12.6198,94.4822,265.6342,0.0001031,1.353e-05,0.0,0 STARLINK-3879,1 52473U 22049Y   23292.92725733  .00001353  00000-0  10310-3 0  9994,2 52473  53.2168  12.6198 0001499  94.4822 265.6342 15.08845903 80646,6917.862,95.437,540.764,538.69,0.0
52473.0,STARLINK-3879,PAYLOAD,2023-10-20 10:58:20,15.08834901,0.0001597,53.2171,10.2399,103.1436,256.9734,-3.1908e-05,-7.96e-06,0.0,0 STARLINK-3879,1 52473U 22049Y   23293.45718353 -.00000796  00000-0 -31908-4 0  9992,2 52473  53.2171  10.2399 0001597 103.1436 256.9734 15.08834901 80885,6917.896,95.438,540.866,538.656,0.0
52473.0,STARLINK-3879,PAYLOAD,2023-10-21 12:24:30,15.0884945,0.0001505,53.2172,5.4789,95.0937,265.0227,0.00011901,1.607e-05,0.0,0 STARLINK-3879,1 52473U 22049Y   23294.51701996  .00001607  00000-0  11901-3 0  9995,2 52473  53.2172   5.4789 0001505  95.0937 265.0227 15.08849450 81041,6917.852,95.437,540.758,538.675,0.0
52473.0,STARLINK-3879,PAYLOAD,2023-10-21 21:56:49,15.08839849,0.0001533,53.2174,3.6967,96.8356,263.281,0.00010067,1.315e-05,0.0,0 STARLINK-3879,1 52473U 22049Y   23294.91446431  .00001315  00000-0  10067-3 0  9997,2 52473  53.2174   3.6967 0001533  96.8356 263.2810 15.08839849 80943,6917.881,95.438,540.806,538.685,0.0
52473.0,STARLINK-3879,PAYLOAD,2023-10-22 12:15:17,15.08847072,0.0001686,53.2174,1.0222,105.9636,254.1542,-0.00010944,-2.03e-05,0.0,0 STARLINK-3879,1 52473U 22049Y   23295.51062262 -.00002030  00000-0 -10944-3 0  9991,2 52473  53.2174   1.0222 0001686 105.9636 254.1542 15.08847072 81030,6917.859,95.437,540.89,538.557,0.0
52473.0,STARLINK-3879,PAYLOAD,2023-10-22 21:47:37,15.08837216,0.0001594,53.2182,359.2377,92.9008,267.2166,0.00010995,1.462e-05,0.0,0 STARLINK-3879,1 52473U 22049Y   23295.90807003  .00001462  00000-0  10995-3 0  9996,2 52473  53.2182 359.2377 0001594  92.9008 267.2166 15.08837216 81096,6917.889,95.438,540.857,538.651,0.0
52473.0,STARLINK-3879,PAYLOAD,2023-10-23 21:38:24,15.08839823,0.0001682,53.218,354.7778,81.0584,279.0599,7.8487e-05,9.61e-06,0.0,0 STARLINK-3879,1 52473U 22049Y   23296.90167109  .00000961  00000-0  78487-4 0  9997,2 52473  53.2180 354.7778 0001682  81.0584 279.0599 15.08839823 81249,6917.881,95.438,540.91,538.582,0.0
52473.0,STARLINK-3879,PAYLOAD,2023-10-24 03:59:57,15.08840867,0.0001844,53.2182,353.5888,84.0148,276.1055,6.0045e-05,6.68e-06,0.0,0 STARLINK-3879,1 52473U 22049Y   23297.16663205  .00000668  00000-0  60045-4 0  9999,2 52473  53.2182 353.5888 0001844  84.0148 276.1055 15.08840867 81446,6917.878,95.437,541.018,538.467,0.0
52473.0,STARLINK-3879,PAYLOAD,2023-10-24 10:21:29,15.08845392,0.0001485,53.2178,352.3978,92.3495,267.7667,7.1853e-05,8.56e-06,0.0,0 STARLINK-3879,1 52473U 22049Y   23297.43158870  .00000856  00000-0  71853-4 0  9994,2 52473  53.2178 352.3978 0001485  92.3495 267.7667 15.08845392 81326,6917.864,95.437,540.756,538.702,0.0
52473.0,STARLINK-3879,PAYLOAD,2023-10-25 10:12:16,15.08843057,0.0001526,53.2173,347.9371,95.7472,264.3695,0.00012827,1.754e-05,0.0,0 STARLINK-3879,1 52473U 22049Y   23298.42518850  .00001754  00000-0  12827-3 0  9995,2 52473  53.2173 347.9371 0001526  95.7472 264.3695 15.08843057 81630,6917.871,95.437,540.792,538.68,0.0
52473.0,STARLINK-3879,PAYLOAD,2023-10-26 11:38:26,15.08847573,0.000132,53.2169,343.1788,93.9537,266.1606,0.00012112,1.641e-05,0.0,0 STARLINK-3879,1 52473U 22049Y   23299.48502586  .00001641  00000-0  12112-3 0  9993,2 52473  53.2169 343.1788 0001320  93.9537 266.1606 15.08847573 81795,6917.857,95.437,540.635,538.809,0.0
52473.0,STARLINK-3879,PAYLOAD,2023-10-26 19:35:22,15.08841671,0.0001273,53.2173,341.6924,92.8141,267.2997,7.0316e-05,8.31e-06,0.0,0 STARLINK-3879,1 52473U 22049Y   23299.81622942  .00000831  00000-0  70316-4 0  9990,2 52473  53.2173 341.6924 0001273  92.8141 267.2997 15.08841671 81687,6917.875,95.437,540.621,538.86,0.0
52473.0,STARLINK-3879,PAYLOAD,2023-10-27 13:04:35,15.08856111,0.0001298,53.2168,338.4199,98.5909,261.5231,0.00016217,2.295e-05,0.0,0 STARLINK-3879,1 52473U 22049Y   23300.54485600  .00002295  00000-0  16217-3 0  9996,2 52473  53.2168 338.4199 0001298  98.5909 261.5231 15.08856111 81954,6917.831,95.437,540.594,538.798,0.0
52473.0,STARLINK-3879,PAYLOAD,2023-10-27 19:26:09,15.08837718,0.0001655,53.217,337.2313,143.6625,216.4479,-0.00018408,-3.216e-05,0.0,0 STARLINK-3879,1 52473U 22049Y   23300.80983096 -.00003216  00000-0 -18408-3 0  9997,2 52473  53.2170 337.2313 0001655 143.6625 216.4479 15.08837718 81995,6917.887,95.438,540.897,538.607,0.0
52473.0,STARLINK-3879,PAYLOAD,2023-10-28 09:44:38,15.0883295,0.0001476,53.2175,334.5557,98.3481,261.7679,-6.4585e-05,-1.315e-05,0.0,0 STARLINK-3879,1 52473U 22049Y   23301.40600055 -.00001315  00000-0 -64585-4 0  9991,2 52473  53.2175 334.5557 0001476  98.3481 261.7679 15.08832950 82086,6917.902,95.438,540.788,538.746,0.0
52473.0,STARLINK-3879,PAYLOAD,2023-10-28 19:16:56,15.0884055,0.0001324,53.2172,332.7688,80.6811,279.4331,2.1165e-05,4.9e-07,0.0,0 STARLINK-3879,1 52473U 22049Y   23301.80343436  .00000049  00000-0  21165-4 0  9990,2 52473  53.2172 332.7688 0001324  80.6811 279.4331 15.08840550 82144,6917.879,95.438,540.66,538.828,0.0
52473.0,STARLINK-3879,PAYLOAD,2023-10-29 09:35:24,15.08856653,0.0001524,53.2165,330.0951,83.6029,276.5137,0.00023786,3.501e-05,0.0,0 STARLINK-3879,1 52473U 22049Y   23302.39958469  .00003501  00000-0  23786-3 0  9999,2 52473  53.2165 330.0951 0001524  83.6029 276.5137 15.08856653 82239,6917.829,95.437,540.749,538.64,0.0
52473.0,STARLINK-3879,PAYLOAD,2023-10-29 19:07:43,15.08844964,0.0001443,53.2159,328.31,87.2688,272.847,0.00020392,2.959e-05,0.0,0 STARLINK-3879,1 52473U 22049Y   23302.79703010  .00002959  00000-0  20392-3 0  9999,2 52473  53.2159 328.3100 0001443  87.2688 272.8470 15.08844964 82296,6917.865,95.437,540.728,538.732,0.0
52473.0,STARLINK-3879,PAYLOAD,2023-10-30 03:04:39,15.08834308,0.0001605,53.2159,326.8245,86.9939,273.1237,0.00013244,1.82e-05,0.0,0 STARLINK-3879,1 52473U 22049Y   23303.12823678  .00001820  00000-0  13244-3 0  9994,2 52473  53.2159 326.8245 0001605  86.9939 273.1237 15.08834308 82346,6917.898,95.438,540.873,538.652,0.0
52473.0,STARLINK-3879,PAYLOAD,2023-10-30 18:58:31,15.08831632,0.0001696,53.2155,323.85,89.6643,270.4543,1.7299e-06,-2.61e-06,0.0,0 STARLINK-3879,1 52473U 22049Y   23303.79064037 -.00000261  00000-0  17299-5 0  9998,2 52473  53.2155 323.8500 0001696  89.6643 270.4543 15.08831632 82285,6917.906,95.438,540.944,538.598,0.0
52473.0,STARLINK-3879,PAYLOAD,2023-10-31 07:41:36,15.08838483,0.0001642,53.2154,321.4688,96.0314,264.0866,-6.4104e-06,-3.9e-06,0.0,0 STARLINK-3879,1 52473U 22049Y   23304.32055995 -.00000390  00000-0 -64104-5 0  9992,2 52473  53.2154 321.4688 0001642  96.0314 264.0866 15.08838483 82528,6917.885,95.438,540.886,538.614,0.0
52473.0,STARLINK-3879,PAYLOAD,2023-11-01 07:32:23,15.08849926,0.0001614,53.2154,317.009,93.1211,266.9966,0.00040528,6.17e-05,0.0,0 STARLINK-3879,1 52473U 22049Y   23305.31415931  .00006170  00000-0  40528-3 0  9994,2 52473  53.2154 317.0090 0001614  93.1211 266.9966 15.08849926 82514,6917.85,95.437,540.832,538.599,0.0
